CCSDS_OEM_VERS       = 3.0
CREATION_DATE        = 2024-04-19T08:54:09.7561181
ORIGINATOR           = Exotrail


META_START
OBJECT_NAME          = my-spacecraft
OBJECT_ID            = 0000
CENTER_NAME          = Earth
REF_FRAME            = GCRF
TIME_SYSTEM          = UTC
START_TIME           = 2023-05-22T00:00:00.0
STOP_TIME            = 2023-05-22T10:00:00.0
INTERPOLATION_DEGREE = 4
META_STOP

2023-05-22T00:00:00.0 163.07791336892754 -840.1752778055735 6943.3924968222955 -7.430802371275289 -1.310116080792889 0.015937965952170497 -1.8898593062785716E-4 9.7287572391788E-4 -0.00806209971005312
2023-05-22T01:00:00.0 4496.147246246015 1442.7873754667808 -5180.532861468827 5.631300018488181 0.371057154882233 4.992899346044213 -0.005191339849570838 -0.0016658716775412767 0.005997635434404053
2023-05-22T02:00:00.0 -6846.237764424844 -1303.166837087431 710.3178052828463 -0.927080380121177 0.7663666090822913 -7.448806268780889 0.007948299134063896 0.0015129637140130702 -8.269286052066638E-4
2023-05-22T03:00:00.0 5663.9900477819165 497.03213481871614 4084.9173515308835 -4.244609815236626 -1.5120146069743923 6.0535830185540815 -0.006572812562075526 -5.768218926314614E-4 -0.004753131340169963
2023-05-22T04:00:00.0 -1559.9866545410264 573.5094609148076 -6809.959052030411 7.223340091734137 1.4817827043367908 -1.5301462868175288 0.0017962265887151994 -6.604245398223126E-4 0.007862128955106478
2023-05-22T05:00:00.0 -3343.164771989446 -1350.2990829249145 5997.428288576506 -6.499030736052549 -0.6939140357802699 -3.771292224581712 0.003874729024664873 0.0015650883562367977 -0.006969811657834334
2023-05-22T06:00:00.0 6520.314554146453 1439.7442314201735 -2126.8674092359297 2.4201737308059 -0.4557585647068745 7.1281666620003685 -0.007557130529461663 -0.001668738562454426 0.0024715601996283237
2023-05-22T07:00:00.0 -6339.408838088158 -783.9269505791979 -2883.400703714612 2.9230456255767314 1.3801047357630332 -6.8123353142386165 0.007342231133606718 9.080245516825239E-4 0.003348576809923787
2023-05-22T08:00:00.0 2894.752771105412 -272.52666274902765 6364.2924696653845 -6.741069696390918 -1.5964004244760808 2.9916387070826724 -0.00335415078833671 3.157253304944336E-4 -0.007394264708343728
2023-05-22T09:00:00.0 2042.0929125727819 1198.3277476278827 -6597.989394882446 7.07920680079048 0.9913617196210441 2.371337936734163 -0.002352093647760545 -0.0013802362123278066 0.007620366111153117
2023-05-22T10:00:00.0 -5931.564557984311 -1509.2405053078796 3400.210876026906 -3.785167360907872 0.12575525263818904 -6.527840548736449 0.006886588785118676 0.0017523325012385477 -0.003958359834732738
COVARIANCE_START
EPOCH                = 2023-05-22T00:00:00.0
9.999999999999373E-5
-2.5303350003320448E-18 1.0000000000000022E-4
-3.2329139365572245E-18 -5.428927273010143E-18 1.0000000000000373E-4
-9.477436171531184E-19 1.5487510695945288E-19 3.4417661704084334E-20 9.999999999999974E-8
-1.1822929385672932E-19 7.437888704433605E-20 5.230270726690031E-20 2.8947418304917575E-22 1.000000000000001E-7
2.200789329463285E-19 3.6306867155766435E-20 -1.1271814546134379E-20 -1.21018646492832E-21 -2.6430604327886376E-22 1.0000000000000005E-7
EPOCH                = 2023-05-22T01:00:00.0
6.947000581108624
0.06665723020926302 0.04523836305174956
9.245009950399945 0.04185789810324298 12.789980340543561
-0.005677704061837609 -6.617620707654462E-5 -0.0075720798740194625 4.6452931801066055E-6
-0.002162380689119923 2.9414703703142317E-5 -0.002927527626265573 1.7539117426004886E-6 7.297697553650359E-7
0.009238183926494656 3.982406883432141E-5 0.01280405662943307 -7.567390483420344E-6 -2.9274556972860185E-6 1.2819266063833651E-5
EPOCH                = 2023-05-22T02:00:00.0
0.08267821548594385
-0.10992049048828353 0.5454663098407629
0.8776703425513662 -3.8456911708019583 32.16846972039553
-0.0010403806586771044 0.004461952377549346 -0.03726887586558952 4.318782165298273E-5
-1.9660637641910907E-4 8.84079324584917E-4 -0.007293340011529115 8.449430008276123E-6 1.6555788305228132E-6
8.393174433953266E-5 -6.692564515196288E-4 0.005494739272258715 -6.340439791394503E-6 -1.2510562032409426E-6 1.016488647189681E-6
EPOCH                = 2023-05-22T03:00:00.0
42.062459164274635
14.62422513290208 5.147615561936331
-57.29304177045243 -19.946835913694706 78.2040405748784
0.060302452975470336 0.021003499915395712 -0.08226108758852785 8.654934540300261E-5
0.0052505609964876455 0.001781324863829182 -0.007141976187537835 7.507542084842579E-6 6.870969750883807E-7
0.04407296602158729 0.01535476262130637 -0.06024449707270879 6.33426729027136E-5 5.491545658832595E-6 4.645385717496775E-5
EPOCH                = 2023-05-22T04:00:00.0
173.39140049622264
33.606828512938684 6.517449942730254
-21.116039384269193 -4.092604948253384 2.5736176489899343
0.05435007412737155 0.01053711990972637 -0.006614634636789642 1.704714930151213E-5
-0.013180622380629078 -0.002572765491536107 0.0016024319992563047 -4.150676075579144E-6 1.0940731364974212E-6
0.18373479094571435 0.03560837409692881 -0.02236290489237978 5.761647605235466E-5 -1.3965145631153395E-5 1.9478377697845206E-4
EPOCH                = 2023-05-22T05:00:00.0
200.0971330459303
21.21531313189012 2.2717197610864597
117.47161987817242 12.456181936442858 68.9951614368092
-0.12459442907473957 -0.013218912924696844 -0.07315355520251998 7.75863592914717E-5
-0.04946874393661401 -0.005205364544237075 -0.029042463957607227 3.0787788726335906E-5 1.230055201719447E-5
0.21757190563749076 0.023068774476293425 0.1277999684160644 -1.3549182584273278E-4 -5.379426795136209E-5 2.3672986030848122E-4
EPOCH                = 2023-05-22T06:00:00.0
39.046313748294295
-9.080704886817896 2.197247927427942
128.91752826086298 -30.064712220081564 426.76037345468274
-0.13070664467214685 0.030469436790815194 -0.4325418257794724 4.384195020240256E-4
-0.029243899882285148 0.006848073786402685 -0.09680021472619377 9.811174232698308E-5 2.196730881797745E-5
0.04585160244721586 -0.010730865942721412 0.15208659957602672 -1.5410856793348677E-4 -3.4500820770961706E-5 5.428429608389671E-5
EPOCH                = 2023-05-22T07:00:00.0
92.69985992765193
41.117641425075924 18.321968882855895
-195.31204870740436 -86.68748260385252 411.8076465841286
0.2212845005844406 0.09822734956976699 -0.466535820676337 5.285458141023848E-4
0.028177251418214647 0.012468409253022955 -0.05937819202946955 6.726506565669593E-5 8.579058323047355E-6
0.09463973662618577 0.04202226249575993 -0.1996831213122879 2.2620275785033E-4 2.878078844226712E-5 9.689080395069813E-5
EPOCH                = 2023-05-22T08:00:00.0
616.285776763171
145.73543595765727 34.477077038225985
-272.30441154288485 -64.39411188150352 120.3320381533243
0.29796730513718206 0.07046930537281486 -0.13166018982293032 1.440690449974743E-4
-0.029877977078331685 -0.007099737051937411 0.013204822541887495 -1.4464528936959859E-5 1.5309123187559867E-6
0.6727344974715437 0.15908812411844425 -0.29729066319267194 3.252720929253636E-4 -3.2625179831765344E-5 7.344866335602937E-4
EPOCH                = 2023-05-22T09:00:00.0
835.2078203000661
112.75492099830406 15.231402494957342
313.85498737971426 42.37002775364446 117.96320325584027
-0.25427746109368593 -0.03433414945605579 -0.09554826043016837 7.741901792016504E-5
-0.15996649482604963 -0.021568051820844186 -0.06011295841820355 4.8683336944375614E-5 3.072319021813947E-5
0.9114242120363684 0.12304272901905765 0.3425504641361101 -2.774718125426639E-4 -1.7456233854857718E-4 9.947295442944463E-4
EPOCH                = 2023-05-22T10:00:00.0
267.1893336043806
-10.028985114147487 0.4422149991567768
470.7493200974336 -17.674099742305067 829.6632360682668
-0.501566743872096 0.01882287645063065 -0.883898597810015 9.417028182869992E-4
-0.12761771949136036 0.004830996615081871 -0.22490039248352625 2.3960290768688394E-4 6.099020145514165E-5
0.2886686942856877 -0.010852931631738835 0.5088778085404239 -5.421075543449826E-4 -1.3794409899877134E-4 3.1217765492725687E-4
COVARIANCE_STOP
